[
    {
        "Altitude(m)": 607911.0182721482,
        "Argument of Periapsis(deg)": 0.0,
        "Eccentricity": 0.0,
        "Inclination(deg)": 60.0,
        "Latitude(deg)": -14.292996292658724,
        "Longitude(deg)": -136.5573693224987,
        "Mean Anomaly(deg)": 196.36359999999996,
        "RAAN(deg)": 135.0,
        "Satellite Name": "Test1 606",
        "Satellite Number": 606,
        "Semi-Major Axis(m)": 6980739.136638005,
        "Time(s)": 0
    },
    {
        "Altitude(m)": 608060.2522421768,
        "Argument of Periapsis(deg)": 0.00010418945913296404,
        "Eccentricity": 0.0,
        "Inclination(deg)": 60.0,
        "Latitude(deg)": -14.826658027870131,
        "Longitude(deg)": -136.2687604708688,
        "Mean Anomaly(deg)": 196.98370614546178,
        "RAAN(deg)": 134.99957995086024,
        "Satellite Name": "Test1 606",
        "Satellite Number": 606,
        "Semi-Major Axis(m)": 6980739.136638005,
        "Time(s)": 10
    }
]